[{"OBJECT_NAME":"STARLINK-36227","OBJECT_ID":"2025-298W","EPOCH":"2026-03-09T22:24:17.887968","MEAN_MOTION":14.99130266,"ECCENTRICITY":0.00025619,"INCLINATION":70.0021,"RA_OF_ASC_NODE":13.8485,"ARG_OF_PERICENTER":273.927,"MEAN_ANOMALY":86.1597,"EPHEMERIS_TYPE":0,"CLASSIFICATION_TYPE":"U","NORAD_CAT_ID":67095,"ELEMENT_SET_NO":999,"REV_AT_EPOCH":1325,"BSTAR":-1.7246e-5,"MEAN_MOTION_DOT":-3.04e-6,"MEAN_MOTION_DDOT":0},{"OBJECT_NAME":"UNISAT-2","OBJECT_ID":"2002-058D","EPOCH":"2026-03-09T21:26:58.912224","MEAN_MOTION":14.84095062,"ECCENTRICITY":0.00633056,"INCLINATION":64.5535,"RA_OF_ASC_NODE":329.2093,"ARG_OF_PERICENTER":269.3781,"MEAN_ANOMALY":90.0072,"EPHEMERIS_TYPE":0,"CLASSIFICATION_TYPE":"U","NORAD_CAT_ID":27608,"ELEMENT_SET_NO":999,"REV_AT_EPOCH":25205,"BSTAR":0.00017704747,"MEAN_MOTION_DOT":1.378e-5,"MEAN_MOTION_DDOT":0}]
